[{"OBJECT_NAME":"STARLINK-5471","OBJECT_ID":"2022-175J","EPOCH":"2026-03-09T07:44:07.895040","MEAN_MOTION":15.08852588,"ECCENTRICITY":0.00015855,"INCLINATION":53.2178,"RA_OF_ASC_NODE":45.7652,"ARG_OF_PERICENTER":85.7722,"MEAN_ANOMALY":274.3451,"EPHEMERIS_TYPE":0,"CLASSIFICATION_TYPE":"U","NORAD_CAT_ID":54766,"ELEMENT_SET_NO":999,"REV_AT_EPOCH":17986,"BSTAR":7.2230928e-5,"MEAN_MOTION_DOT":8.62e-6,"MEAN_MOTION_DDOT":0},{"OBJECT_NAME":"FENGYUN 1C DEB","OBJECT_ID":"1999-025DDJ","EPOCH":"2026-03-01T18:34:40.606176","MEAN_MOTION":14.6204627,"ECCENTRICITY":0.02210591,"INCLINATION":98.62,"RA_OF_ASC_NODE":179.8313,"ARG_OF_PERICENTER":250.664,"MEAN_ANOMALY":107.0539,"EPHEMERIS_TYPE":0,"CLASSIFICATION_TYPE":"U","NORAD_CAT_ID":33625,"ELEMENT_SET_NO":999,"REV_AT_EPOCH":62545,"BSTAR":0.0012246157,"MEAN_MOTION_DOT":8.674e-5,"MEAN_MOTION_DDOT":0}]
